GORIZONT 31             
1 23775U 96005A   26073.42028800 -.00000140  00000+0  00000+0 0  9990
2 23775  14.4130 355.3053 0021804 246.4374 351.1637  0.99884319110108
PAKSAT 1 (ANATOLIA 1)   
1 23779U 96006A   26073.70824974 -.00000205  00000+0  00000+0 0  9994
2 23779  10.6664  46.6916 0005763 211.6225 154.8288  0.99597781109916
POLAR                   
1 23802U 96013A   26072.52935318  .00000230  00000+0  00000+0 0  9990
2 23802  79.7558 228.1473 6373426 212.3300  84.2673  1.29845770143615
INMARSAT 3-F1           
1 23839U 96020A   26073.63986944 -.00000057  00000+0  00000+0 0  9990
2 23839  10.4061  47.4900 0005667 280.2181  75.0988  0.99999898109309
SL-12 R/B(2)            
1 23845U 96021D   26073.61603600 -.00000105  00000+0  00000+0 0  9995
2 23845   5.1678 236.5290 3994181 264.3642  88.8722  1.64338021179651
GALAXY 9 (G-9)          
1 23877U 96033A   26073.50826814  .00000091  00000+0  00000+0 0  9998
2 23877  11.9250  33.1832 0007908 184.9326 353.3254  0.99539305 45416
DELTA 2 R/B(2)          
1 23879U 96033C   26073.90490683  .00000063  00000+0  00000+0 0  9994
2 23879  23.2267 293.0468 6780110 339.8795   2.9887  2.11150680 94935
GORIZONT 32             
1 23880U 96034A   26073.60322427 -.00000087  00000+0  00000+0 0  9991
2 23880  14.3925 355.7044 0009190 354.1976 205.1297  1.00222718109086
TURKSAT 1C              
1 23949U 96040B   26073.89238198 -.00000135  00000+0  00000+0 0  9990
2 23949  11.9163  30.9049 0004336 211.7864 327.5337  1.00380707108735
UFO 7 (USA 127)         
1 23967U 96042A   26073.70512973 -.00000230  00000+0  00000+0 0  9994
2 23967  11.0265  17.5881 0003068 101.7410 276.7814  1.00242663108542
ITALSAT 2               
1 24208U 96044A   26073.74766884 -.00000355  00000+0  00000+0 0  9999
2 24208  13.7498   7.5310 0020743 154.4087  31.1043  1.00785606108645
ZHONGXING-7             
1 24282U 96048A   26073.80176350 -.00000064  00000+0  00000+0 0  9992
2 24282  16.6248 186.7848 3514927 265.3709  65.4058  1.06658864117711
INMARSAT 3-F2           
1 24307U 96053A   26073.54549535  .00000017  00000+0  00000+0 0  9993
2 24307   9.6438  54.8840 0006223 302.9586 254.7043  0.99978974107974
ECHOSTAR 2              
1 24313U 96055A   26073.90511651 -.00000138  00000+0  00000+0 0  9995
2 24313  11.8180  32.3042 0008605  86.0633 279.3705  1.00349921108071
AMC-1 (GE-1)            
1 24315U 96054A   26073.84600958 -.00000265  00000+0  00000+0 0  9999
2 24315   8.8966  60.1231 0009760 238.7253 139.3951  0.99509457 45300
EXPRESS 2               
1 24435U 96058A   26073.89012013 -.00000164  00000+0  00000+0 0  9998
2 24435  14.5781 355.0763 0011304 349.4131 228.5191  1.00333770107863
SL-12 R/B(2)            
1 24438U 96058D   26073.93232994  .00000131  00000+0  00000+0 0  9991
2 24438  14.3979 351.7762 0006927 123.7933  69.7480  1.00241033107892
