[{"OBJECT_NAME":"GORIZONT 31","OBJECT_ID":"1996-005A","EPOCH":"2026-03-14T10:05:12.883200","MEAN_MOTION":0.99884319,"ECCENTRICITY":0.00218047,"INCLINATION":14.413,"RA_OF_ASC_NODE":355.3053,"ARG_OF_PERICENTER":246.4374,"MEAN_ANOMALY":351.1637,"EPHEMERIS_TYPE":0,"CLASSIFICATION_TYPE":"U","NORAD_CAT_ID":23775,"ELEMENT_SET_NO":999,"REV_AT_EPOCH":11010,"BSTAR":0,"MEAN_MOTION_DOT":-1.4e-6,"MEAN_MOTION_DDOT":0},{"OBJECT_NAME":"PAKSAT 1 (ANATOLIA 1)","OBJECT_ID":"1996-006A","EPOCH":"2026-03-14T16:59:52.777536","MEAN_MOTION":0.99597781,"ECCENTRICITY":0.00057632,"INCLINATION":10.6664,"RA_OF_ASC_NODE":46.6916,"ARG_OF_PERICENTER":211.6225,"MEAN_ANOMALY":154.8288,"EPHEMERIS_TYPE":0,"CLASSIFICATION_TYPE":"U","NORAD_CAT_ID":23779,"ELEMENT_SET_NO":999,"REV_AT_EPOCH":10991,"BSTAR":0,"MEAN_MOTION_DOT":-2.05e-6,"MEAN_MOTION_DDOT":0},{"OBJECT_NAME":"POLAR","OBJECT_ID":"1996-013A","EPOCH":"2026-03-13T12:42:16.114752","MEAN_MOTION":1.2984577,"ECCENTRICITY":0.63734265,"INCLINATION":79.7558,"RA_OF_ASC_NODE":228.1473,"ARG_OF_PERICENTER":212.33,"MEAN_ANOMALY":84.2673,"EPHEMERIS_TYPE":0,"CLASSIFICATION_TYPE":"U","NORAD_CAT_ID":23802,"ELEMENT_SET_NO":999,"REV_AT_EPOCH":14361,"BSTAR":0,"MEAN_MOTION_DOT":2.3e-6,"MEAN_MOTION_DDOT":0},{"OBJECT_NAME":"INMARSAT 3-F1","OBJECT_ID":"1996-020A","EPOCH":"2026-03-14T15:21:24.719616","MEAN_MOTION":0.99999898,"ECCENTRICITY":0.00056676,"INCLINATION":10.4061,"RA_OF_ASC_NODE":47.49,"ARG_OF_PERICENTER":280.2181,"MEAN_ANOMALY":75.0988,"EPHEMERIS_TYPE":0,"CLASSIFICATION_TYPE":"U","NORAD_CAT_ID":23839,"ELEMENT_SET_NO":999,"REV_AT_EPOCH":10930,"BSTAR":0,"MEAN_MOTION_DOT":-5.7e-7,"MEAN_MOTION_DDOT":0},{"OBJECT_NAME":"SL-12 R/B(2)","OBJECT_ID":"1996-021D","EPOCH":"2026-03-14T14:47:05.510400","MEAN_MOTION":1.64338021,"ECCENTRICITY":0.39941811,"INCLINATION":5.1678,"RA_OF_ASC_NODE":236.529,"ARG_OF_PERICENTER":264.3642,"MEAN_ANOMALY":88.8722,"EPHEMERIS_TYPE":0,"CLASSIFICATION_TYPE":"U","NORAD_CAT_ID":23845,"ELEMENT_SET_NO":999,"REV_AT_EPOCH":17965,"BSTAR":0,"MEAN_MOTION_DOT":-1.05e-6,"MEAN_MOTION_DDOT":0},{"OBJECT_NAME":"GALAXY 9 (G-9)","OBJECT_ID":"1996-033A","EPOCH":"2026-03-14T12:11:54.367296","MEAN_MOTION":0.99539305,"ECCENTRICITY":0.00079089,"INCLINATION":11.925,"RA_OF_ASC_NODE":33.1832,"ARG_OF_PERICENTER":184.9326,"MEAN_ANOMALY":353.3254,"EPHEMERIS_TYPE":0,"CLASSIFICATION_TYPE":"U","NORAD_CAT_ID":23877,"ELEMENT_SET_NO":999,"REV_AT_EPOCH":4541,"BSTAR":0,"MEAN_MOTION_DOT":9.1e-7,"MEAN_MOTION_DDOT":0},{"OBJECT_NAME":"DELTA 2 R/B(2)","OBJECT_ID":"1996-033C","EPOCH":"2026-03-14T21:43:03.950112","MEAN_MOTION":2.1115068,"ECCENTRICITY":0.678011,"INCLINATION":23.2267,"RA_OF_ASC_NODE":293.0468,"ARG_OF_PERICENTER":339.8795,"MEAN_ANOMALY":2.9887,"EPHEMERIS_TYPE":0,"CLASSIFICATION_TYPE":"U","NORAD_CAT_ID":23879,"ELEMENT_SET_NO":999,"REV_AT_EPOCH":9493,"BSTAR":0,"MEAN_MOTION_DOT":6.3e-7,"MEAN_MOTION_DDOT":0},{"OBJECT_NAME":"GORIZONT 32","OBJECT_ID":"1996-034A","EPOCH":"2026-03-14T14:28:38.576928","MEAN_MOTION":1.00222718,"ECCENTRICITY":0.00091903,"INCLINATION":14.3925,"RA_OF_ASC_NODE":355.7044,"ARG_OF_PERICENTER":354.1976,"MEAN_ANOMALY":205.1297,"EPHEMERIS_TYPE":0,"CLASSIFICATION_TYPE":"U","NORAD_CAT_ID":23880,"ELEMENT_SET_NO":999,"REV_AT_EPOCH":10908,"BSTAR":0,"MEAN_MOTION_DOT":-8.7e-7,"MEAN_MOTION_DDOT":0},{"OBJECT_NAME":"TURKSAT 1C","OBJECT_ID":"1996-040B","EPOCH":"2026-03-14T21:25:01.803072","MEAN_MOTION":1.00380707,"ECCENTRICITY":0.0004336,"INCLINATION":11.9163,"RA_OF_ASC_NODE":30.9049,"ARG_OF_PERICENTER":211.7864,"MEAN_ANOMALY":327.5337,"EPHEMERIS_TYPE":0,"CLASSIFICATION_TYPE":"U","NORAD_CAT_ID":23949,"ELEMENT_SET_NO":999,"REV_AT_EPOCH":10873,"BSTAR":0,"MEAN_MOTION_DOT":-1.35e-6,"MEAN_MOTION_DDOT":0},{"OBJECT_NAME":"UFO 7 (USA 127)","OBJECT_ID":"1996-042A","EPOCH":"2026-03-14T16:55:23.208672","MEAN_MOTION":1.00242663,"ECCENTRICITY":0.00030686,"INCLINATION":11.0265,"RA_OF_ASC_NODE":17.5881,"ARG_OF_PERICENTER":101.741,"MEAN_ANOMALY":276.7814,"EPHEMERIS_TYPE":0,"CLASSIFICATION_TYPE":"U","NORAD_CAT_ID":23967,"ELEMENT_SET_NO":999,"REV_AT_EPOCH":10854,"BSTAR":0,"MEAN_MOTION_DOT":-2.3e-6,"MEAN_MOTION_DDOT":0},{"OBJECT_NAME":"ITALSAT 2","OBJECT_ID":"1996-044A","EPOCH":"2026-03-14T17:56:38.587776","MEAN_MOTION":1.00785606,"ECCENTRICITY":0.00207437,"INCLINATION":13.7498,"RA_OF_ASC_NODE":7.531,"ARG_OF_PERICENTER":154.4087,"MEAN_ANOMALY":31.1043,"EPHEMERIS_TYPE":0,"CLASSIFICATION_TYPE":"U","NORAD_CAT_ID":24208,"ELEMENT_SET_NO":999,"REV_AT_EPOCH":10864,"BSTAR":0,"MEAN_MOTION_DOT":-3.55e-6,"MEAN_MOTION_DDOT":0},{"OBJECT_NAME":"ZHONGXING-7","OBJECT_ID":"1996-048A","EPOCH":"2026-03-14T19:14:32.366400","MEAN_MOTION":1.06658864,"ECCENTRICITY":0.35149279,"INCLINATION":16.6248,"RA_OF_ASC_NODE":186.7848,"ARG_OF_PERICENTER":265.3709,"MEAN_ANOMALY":65.4058,"EPHEMERIS_TYPE":0,"CLASSIFICATION_TYPE":"U","NORAD_CAT_ID":24282,"ELEMENT_SET_NO":999,"REV_AT_EPOCH":11771,"BSTAR":0,"MEAN_MOTION_DOT":-6.4e-7,"MEAN_MOTION_DDOT":0},{"OBJECT_NAME":"INMARSAT 3-F2","OBJECT_ID":"1996-053A","EPOCH":"2026-03-14T13:05:30.798240","MEAN_MOTION":0.99978974,"ECCENTRICITY":0.00062234,"INCLINATION":9.6438,"RA_OF_ASC_NODE":54.884,"ARG_OF_PERICENTER":302.9586,"MEAN_ANOMALY":254.7043,"EPHEMERIS_TYPE":0,"CLASSIFICATION_TYPE":"U","NORAD_CAT_ID":24307,"ELEMENT_SET_NO":999,"REV_AT_EPOCH":10797,"BSTAR":0,"MEAN_MOTION_DOT":1.7e-7,"MEAN_MOTION_DDOT":0},{"OBJECT_NAME":"ECHOSTAR 2","OBJECT_ID":"1996-055A","EPOCH":"2026-03-14T21:43:22.066464","MEAN_MOTION":1.00349921,"ECCENTRICITY":0.00086054,"INCLINATION":11.818,"RA_OF_ASC_NODE":32.3042,"ARG_OF_PERICENTER":86.0633,"MEAN_ANOMALY":279.3705,"EPHEMERIS_TYPE":0,"CLASSIFICATION_TYPE":"U","NORAD_CAT_ID":24313,"ELEMENT_SET_NO":999,"REV_AT_EPOCH":10807,"BSTAR":0,"MEAN_MOTION_DOT":-1.38e-6,"MEAN_MOTION_DDOT":0},{"OBJECT_NAME":"AMC-1 (GE-1)","OBJECT_ID":"1996-054A","EPOCH":"2026-03-14T20:18:15.227712","MEAN_MOTION":0.99509457,"ECCENTRICITY":0.00097608,"INCLINATION":8.8966,"RA_OF_ASC_NODE":60.1231,"ARG_OF_PERICENTER":238.7253,"MEAN_ANOMALY":139.3951,"EPHEMERIS_TYPE":0,"CLASSIFICATION_TYPE":"U","NORAD_CAT_ID":24315,"ELEMENT_SET_NO":999,"REV_AT_EPOCH":4530,"BSTAR":0,"MEAN_MOTION_DOT":-2.65e-6,"MEAN_MOTION_DDOT":0},{"OBJECT_NAME":"EXPRESS 2","OBJECT_ID":"1996-058A","EPOCH":"2026-03-14T21:21:46.379232","MEAN_MOTION":1.0033377,"ECCENTRICITY":0.00113042,"INCLINATION":14.5781,"RA_OF_ASC_NODE":355.0763,"ARG_OF_PERICENTER":349.4131,"MEAN_ANOMALY":228.5191,"EPHEMERIS_TYPE":0,"CLASSIFICATION_TYPE":"U","NORAD_CAT_ID":24435,"ELEMENT_SET_NO":999,"REV_AT_EPOCH":10786,"BSTAR":0,"MEAN_MOTION_DOT":-1.64e-6,"MEAN_MOTION_DDOT":0},{"OBJECT_NAME":"SL-12 R/B(2)","OBJECT_ID":"1996-058D","EPOCH":"2026-03-14T22:22:33.306816","MEAN_MOTION":1.00241033,"ECCENTRICITY":0.00069272,"INCLINATION":14.3979,"RA_OF_ASC_NODE":351.7762,"ARG_OF_PERICENTER":123.7933,"MEAN_ANOMALY":69.748,"EPHEMERIS_TYPE":0,"CLASSIFICATION_TYPE":"U","NORAD_CAT_ID":24438,"ELEMENT_SET_NO":999,"REV_AT_EPOCH":10789,"BSTAR":0,"MEAN_MOTION_DOT":1.31e-6,"MEAN_MOTION_DDOT":0}]
